MEAN_MOTION;ECCENTRICITY;INCLINATION;RA_OF_ASC_NODE;ARG_OF_PERICENTER;MEAN_ANOMALY;BSTAR;MEAN_MOTION_DOT;MEAN_MOTION_DDOT;TYPE
2.00568145;0.0067581;56.0657;14.9419;23.7227;336.5841;0;-7.1E-7;0;Weather
2.00568126;0.006763;56.0658;14.9024;23.7576;336.5475;0;-7.6E-7;0;Weather
2.0056812;0.0067644;56.0658;14.8827;23.7769;336.5275;0;-7.8E-7;0;Weather
2.00568113;0.0067689;56.0658;14.863;23.8027;336.5014;0;-8.0E-7;0;Weather
2.00568111;0.006769;56.0658;14.863;23.8038;336.5003;0;-8.0E-7;0;Weather
2.00568106;0.0067736;56.0659;14.8235;23.8384;336.4657;0;-8.4E-7;0;Weather
2.00568106;0.0067736;56.0659;14.8235;23.8384;336.4657;0;-8.4E-7;0;Weather
2.00568109;0.0067817;56.066;14.7643;23.9;336.4065;0;-8.7E-7;0;Weather
2.00568122;0.006786;56.0661;14.7249;23.93;336.3792;0;-8.9E-7;0;Weather
2.00568142;0.0067922;56.0663;14.6657;23.9818;336.3319;0;-9.2E-7;0;Weather
2.00568142;0.0067922;56.0663;14.6657;23.9818;336.3319;0;-9.2E-7;0;Weather
2.00568165;0.0067982;56.0663;14.6263;24.0274;336.2892;0;-9.4E-7;0;Weather
2.00568165;0.0067982;56.0663;14.6263;24.0274;336.2892;0;-9.4E-7;0;Weather
2.00568188;0.0068029;56.0664;14.5869;24.0661;336.2526;0;-9.6E-7;0;Weather
2.00568188;0.0068029;56.0664;14.5869;24.0661;336.2526;0;-9.6E-7;0;Weather
2.00568188;0.0068029;56.0664;14.5869;24.0661;336.2526;0;-9.6E-7;0;Weather
2.00568247;0.0068146;56.0665;14.4883;24.1575;336.1632;0;-1.03E-6;0;Weather
2.00568247;0.0068146;56.0665;14.4883;24.1575;336.1632;0;-1.03E-6;0;Weather
2.00568273;0.006821;56.0666;14.4292;24.2116;336.1094;0;-1.05E-6;0;Weather
2.00568288;0.0068275;56.0667;14.3898;24.2675;336.0543;0;-1.05E-6;0;Weather
2.00568293;0.0068324;56.0667;14.3504;24.313;336.01;0;-1.03E-6;0;Weather
2.00568293;0.0068324;56.0667;14.3504;24.313;336.01;0;-1.03E-6;0;Weather
2.00568286;0.0068422;56.0668;14.2716;24.3977;335.9298;0;-9.5E-7;0;Weather
2.00568286;0.0068422;56.0668;14.2716;24.3977;335.9298;0;-9.5E-7;0;Weather
2.00568272;0.0068455;56.0669;14.2322;24.4314;335.8993;0;-8.9E-7;0;Weather
2.00568272;0.0068455;56.0669;14.2322;24.4314;335.8993;0;-8.9E-7;0;Weather
2.00568232;0.0068524;56.067;14.173;24.4902;335.8466;0;-8.0E-7;0;Weather
2.00568184;0.0068581;56.067;14.1138;24.5447;335.7984;0;-7.3E-7;0;Weather
2.00568158;0.0068603;56.0671;14.0941;24.5626;335.7825;0;-7.1E-7;0;Weather
2.00568158;0.0068603;56.0671;14.0941;24.5626;335.7825;0;-7.1E-7;0;Weather
2.00568057;0.0068708;56.0672;13.9955;24.6539;335.6979;0;-6.7E-7;0;Weather
2.00568019;0.0068742;56.0673;13.9562;24.685;335.6673;0;-6.9E-7;0;Weather
2.00567998;0.0068766;56.0673;13.9366;24.7161;335.6363;0;-7.0E-7;0;Weather
2.0056797;0.0068802;56.0674;13.8971;24.7535;335.598;0;-7.3E-7;0;Weather
2.0056797;0.0068802;56.0674;13.8971;24.7535;335.598;0;-7.3E-7;0;Weather
2.00567934;0.0068882;56.0675;13.838;24.7939;335.5554;0;-7.9E-7;0;Weather
2.00567918;0.0068904;56.0675;13.8182;24.8188;335.5301;0;-8.1E-7;0;Weather
2.00567918;0.0068904;56.0675;13.8182;24.8188;335.5301;0;-8.1E-7;0;Weather
2.005679;0.0068988;56.0677;13.7196;24.9149;335.4348;0;-8.9E-7;0;Weather
2.005679;0.0068988;56.0677;13.7196;24.9149;335.4348;0;-8.9E-7;0;Weather
2.00567902;0.0069032;56.0677;13.6801;24.9617;335.3905;0;-9.1E-7;0;Weather
2.00567905;0.006905;56.0678;13.6604;24.9837;335.3701;0;-9.2E-7;0;Weather
2.00567921;0.0069086;56.0678;13.6012;25.0522;335.3064;0;-9.4E-7;0;Weather
2.00567921;0.0069086;56.0678;13.6012;25.0522;335.3064;0;-9.4E-7;0;Weather
2.00567953;0.006913;56.0679;13.5421;25.1365;335.2267;0;-9.7E-7;0;Weather
2.00567964;0.006915;56.068;13.5223;25.1542;335.2101;0;-9.8E-7;0;Weather
2.00567985;0.0069177;56.068;13.4828;25.1915;335.1743;0;-1.01E-6;0;Weather
2.00567998;0.0069198;56.068;13.4631;25.2112;335.1551;0;-1.02E-6;0;Weather
2.00567998;0.0069198;56.068;13.4631;25.2112;335.1551;0;-1.02E-6;0;Weather
2.00568008;0.0069212;56.0681;13.4434;25.229;335.1376;0;-1.04E-6;0;Weather
2.00568008;0.0069212;56.0681;13.4434;25.229;335.1376;0;-1.04E-6;0;Weather
2.0056806;0.0069311;56.0683;13.325;25.3417;335.0257;0;-1.07E-6;0;Weather
2.00568061;0.0069314;56.0683;13.325;25.3458;335.0217;0;-1.07E-6;0;Weather
2.0056807;0.0069352;56.0683;13.2856;25.3833;334.9851;0;-1.06E-6;0;Weather
2.0056807;0.0069352;56.0683;13.2856;25.3833;334.9851;0;-1.06E-6;0;Weather
2.00568075;0.0069376;56.0684;13.2461;25.422;334.9478;0;-1.02E-6;0;Weather
2.00568066;0.0069411;56.0685;13.2067;25.4602;334.9118;0;-9.8E-7;0;Weather
2.00568064;0.0069424;56.0685;13.187;25.4799;334.8935;0;-9.5E-7;0;Weather
2.00568063;0.0069426;56.0685;13.187;25.4784;334.895;0;-9.5E-7;0;Weather
2.0056805;0.0069449;56.0686;13.1476;25.5169;334.8598;0;-8.9E-7;0;Weather
2.0056805;0.0069449;56.0686;13.1476;25.5169;334.8598;0;-8.9E-7;0;Weather
2.00568036;0.0069463;56.0686;13.1279;25.5326;334.8459;0;-8.6E-7;0;Weather
2.00568036;0.0069463;56.0686;13.1279;25.5326;334.8459;0;-8.6E-7;0;Weather
2.00567992;0.006951;56.0687;13.0687;25.5821;334.8024;0;-7.7E-7;0;Weather
2.00567974;0.0069523;56.0687;13.049;25.5967;334.7898;0;-7.5E-7;0;Weather
2.00567958;0.0069534;56.0687;13.0293;25.6109;334.7773;0;-7.2E-7;0;Weather
2.00567938;0.0069548;56.0688;13.0096;25.6292;334.7609;0;-7.0E-7;0;Weather
2.00567938;0.0069548;56.0688;13.0096;25.6292;334.7609;0;-7.0E-7;0;Weather
2.00567938;0.0069548;56.0688;13.0096;25.6292;334.7609;0;-7.0E-7;0;Weather
2.00567861;0.0069605;56.0689;12.9307;25.7014;334.6935;0;-6.6E-7;0;Weather
2.00567861;0.0069605;56.0689;12.9307;25.7014;334.6935;0;-6.6E-7;0;Weather
2.00567861;0.0069605;56.0689;12.9307;25.7014;334.6935;0;-6.6E-7;0;Weather
2.00567861;0.0069605;56.0689;12.9307;25.7014;334.6935;0;-6.6E-7;0;Weather
2.00567765;0.0069673;56.0691;12.832;25.7893;334.6052;0;-6.9E-7;0;Weather
2.00567733;0.0069691;56.0692;12.8123;25.8442;334.55;0;-7.0E-7;0;Weather
2.00567711;0.0069711;56.0692;12.7728;25.8804;334.512;0;-7.4E-7;0;Weather
2.00567708;0.0069716;56.0692;12.7728;25.8787;334.5137;0;-7.4E-7;0;Weather
2.00567688;0.0069738;56.0693;12.7334;25.9166;334.4741;0;-7.7E-7;0;Weather
2.00567675;0.0069763;56.0694;12.6939;25.9524;334.4375;0;-8.0E-7;0;Weather
2.00567661;0.0069781;56.0695;12.6544;26.0008;334.3895;0;-8.3E-7;0;Weather
2.00567661;0.0069781;56.0695;12.6544;26.0008;334.3895;0;-8.3E-7;0;Weather
2.00567659;0.006981;56.0696;12.615;26.0404;334.3513;0;-8.5E-7;0;Weather
2.00567659;0.0069812;56.0696;12.6149;26.0441;334.3476;0;-8.5E-7;0;Weather
2.00567659;0.0069812;56.0696;12.6149;26.0441;334.3476;0;-8.5E-7;0;Weather
2.00567659;0.0069812;56.0696;12.6149;26.0441;334.3476;0;-8.5E-7;0;Weather
2.00567659;0.0069812;56.0696;12.6149;26.0441;334.3476;0;-8.5E-7;0;Weather
2.00567699;0.0069895;56.0699;12.4769;26.1786;334.2213;0;-9.0E-7;0;Weather
2.00567701;0.0069898;56.0699;12.4769;26.1847;334.2153;0;-9.0E-7;0;Weather
2.00567728;0.006993;56.07;12.4178;26.2344;334.1672;0;-9.4E-7;0;Weather
2.00567728;0.006993;56.07;12.4178;26.2344;334.1672;0;-9.4E-7;0;Weather
2.00567773;0.0069966;56.0702;12.3389;26.3194;334.0821;0;-1.0E-6;0;Weather
2.00567782;0.006998;56.0702;12.2994;26.349;334.0517;0;-1.02E-6;0;Weather
2.00567799;0.0070001;56.0703;12.26;26.3852;334.0149;0;-1.02E-6;0;Weather
2.00567799;0.0070001;56.0703;12.26;26.3852;334.0149;0;-1.02E-6;0;Weather
2.00567816;0.0070042;56.0705;12.1811;26.4536;333.9467;0;-9.8E-7;0;Weather
2.00567816;0.0070042;56.0705;12.1811;26.4536;333.9467;0;-9.8E-7;0;Weather
2.00567813;0.0070067;56.0706;12.122;26.5055;333.8968;0;-9.1E-7;0;Weather
2.00567813;0.0070067;56.0706;12.122;26.5055;333.8968;0;-9.1E-7;0;Weather
2.00567801;0.0070083;56.0707;12.0826;26.5383;333.8662;0;-8.5E-7;0;Weather
2.00567801;0.0070083;56.0707;12.0826;26.5383;333.8662;0;-8.5E-7;0;Weather
2.00567801;0.0070083;56.0707;12.0826;26.5383;333.8662;0;-8.5E-7;0;Weather
2.00567801;0.0070083;56.0707;12.0826;26.5383;333.8662;0;-8.5E-7;0;Weather
2.00567702;0.0070123;56.071;11.9446;26.6577;333.7571;0;-6.5E-7;0;Weather
2.00567702;0.0070123;56.071;11.9446;26.6577;333.7571;0;-6.5E-7;0;Weather
2.00567702;0.0070123;56.071;11.9446;26.6577;333.7571;0;-6.5E-7;0;Weather
2.00567699;0.0070123;56.071;11.9446;26.6557;333.759;0;-6.5E-7;0;Weather
2.00567607;0.0070161;56.0712;11.8658;26.72;333.6984;0;-5.9E-7;0;Weather
2.00567567;0.0070187;56.0712;11.8066;26.7563;333.6617;0;-5.9E-7;0;Weather
2.00567567;0.0070187;56.0712;11.8066;26.7563;333.6617;0;-5.9E-7;0;Weather
2.00567521;0.0070207;56.0713;11.7672;26.7891;333.6273;0;-6.0E-7;0;Weather
2.00567509;0.0070213;56.0713;11.7672;26.8019;333.6147;0;-6.0E-7;0;Weather
2.00567485;0.0070225;56.0714;11.7278;26.83;333.5842;0;-6.3E-7;0;Weather
2.00567485;0.0070225;56.0714;11.7278;26.83;333.5842;0;-6.3E-7;0;Weather
2.00567485;0.0070225;56.0714;11.7278;26.83;333.5842;0;-6.3E-7;0;Weather
2.00567432;0.0070252;56.0716;11.6292;26.9114;333.4966;0;-7.1E-7;0;Weather
2.0056743;0.0070261;56.0716;11.6292;26.9124;333.4956;0;-7.1E-7;0;Weather
2.00567418;0.0070276;56.0716;11.5898;26.9396;333.4672;0;-7.3E-7;0;Weather
2.00567412;0.007029;56.0717;11.5504;26.9693;333.4375;0;-7.5E-7;0;Weather
2.00567412;0.007029;56.0717;11.5504;26.9693;333.4375;0;-7.5E-7;0;Weather
2.00567408;0.0070285;56.072;11.4715;27.0598;333.3495;0;-7.8E-7;0;Weather
2.00567422;0.0070321;56.0719;11.4321;27.075;333.3357;0;-8.0E-7;0;Weather
2.00567426;0.0070327;56.072;11.4124;27.0884;333.3228;0;-8.1E-7;0;Weather
2.00567426;0.0070327;56.072;11.4124;27.0884;333.3228;0;-8.1E-7;0;Weather
2.00567446;0.0070337;56.0721;11.373;27.1205;333.2913;0;-8.4E-7;0;Weather
2.00567446;0.0070337;56.0721;11.373;27.1205;333.2913;0;-8.4E-7;0;Weather
2.00567446;0.0070337;56.0721;11.373;27.1205;333.2913;0;-8.4E-7;0;Weather
2.00567446;0.0070337;56.0721;11.373;27.1205;333.2913;0;-8.4E-7;0;Weather
2.00567501;0.007036;56.0723;11.2745;27.1946;333.2151;0;-9.2E-7;0;Weather
2.00567501;0.007036;56.0723;11.2745;27.1946;333.2151;0;-9.2E-7;0;Weather
2.00567519;0.0070373;56.0723;11.2351;27.2198;333.1882;0;-9.5E-7;0;Weather
2.00567538;0.0070385;56.0725;11.1957;27.2461;333.1602;0;-9.6E-7;0;Weather
2.00567538;0.0070385;56.0725;11.1957;27.2461;333.1602;0;-9.6E-7;0;Weather
2.00567562;0.0070411;56.0727;11.0973;27.3108;333.0932;0;-9.2E-7;0;Weather
2.00567562;0.0070411;56.0727;11.0973;27.3108;333.0932;0;-9.2E-7;0;Weather
